*******************************************************************************
Ephemeris / WWW_USER Mon Jul 15 19:07:25 2024 Pasadena, USA      / Horizons    
*******************************************************************************
Target body name: (2017 SN16)                     {source: JPL#20}
Center body name: Earth (399)                     {source: DE441}
Center-site name: Gemini South Obs., Cerro Pachon
*******************************************************************************
Start time      : A.D. 2018-Dec-23 23:54:00.0000 UT      
Stop  time      : A.D. 2018-Dec-24 09:30:00.0000 UT      
Step-size       : 1 minutes
*******************************************************************************
Target pole/equ : undefined
Target radii    : undefined                                                    
Center geodetic : 289.2634, -30.2406227, 2.71233  {E-lon(deg),Lat(deg),Alt(km)}
Center cylindric: 289.2634,5517.21435,-3194.81213 {E-lon(deg),Dxy(km),Dz(km)}
Center pole/equ : ITRF93                          {East-longitude positive}
Center radii    : 6378.137, 6378.137, 6356.752 km {Equator_a, b, pole_c}       
Target primary  : Sun
Vis. interferer : MOON (R_eq= 1737.400) km        {source: DE441}
Rel. light bend : Sun                             {source: DE441}
Rel. lght bnd GM: 1.3271E+11 km^3/s^2                                          
Small-body perts: Yes                             {source: SB441-N16}
Atmos refraction: NO (AIRLESS)
RA format       : HMS
Time format     : CAL 
Calendar mode   : Mixed Julian/Gregorian
RTS-only print  : NO       
EOP file        : eop.240715.p241008                                           
EOP coverage    : DATA-BASED 1962-JAN-20 TO 2024-JUL-15. PREDICTS-> 2024-OCT-07
Units conversion: 1 au= 149597870.700 km, c= 299792.458 km/s, 1 day= 86400.0 s 
Table cut-offs 1: Elevation (-90.0deg=NO ),Airmass (>38.000=NO), Daylight (YES)
Table cut-offs 2: Solar elongation (  0.0,180.0=NO ),Local Hour Angle( 0.0=NO )
Table cut-offs 3: RA/DEC angular rate (     0.0=NO )                           
*******************************************************************************
Initial IAU76/J2000 heliocentric ecliptic osculating elements (au, days, deg.):
  EPOCH=  2458305.5 ! 2018-Jul-06.00 (TDB)         Residual RMS= .23751        
   EC= .1454884975659386   QR= .8682464985612274   TP= 2458145.5722438502      
   OM= 2.759719470837934   W=  137.1017088998531   IN= 13.38264682844635       
  Equivalent ICRF heliocentric cartesian coordinates (au, au/d):
   X= 5.756755401261899E-01  Y=-7.953424559592890E-01  Z=-6.031561894536019E-01
  VX= 1.332076113263395E-02 VY= 5.454663564585547E-03 VZ= 3.896229736425836E-03
Asteroid physical parameters (km, seconds, rotational period in hours):        
   GM= n.a.                RAD= n.a.               ROTPER= n.a.                
   H= 23.34                G= .150                 B-V= n.a.                   
                           ALBEDO= n.a.            STYP= n.a.                  
*******************************************************************************
 Date__(UT)__HR:MN     R.A._________(ICRF)_________DEC
******************************************************
$$SOE
 2018-Dec-24 06:03  m  20 03 45.006199 +38 11 21.73423
 2018-Dec-24 06:04  m  20 03 44.960253 +38 11 21.97581
 2018-Dec-24 06:05  m  20 03 44.914313 +38 11 22.21771
 2018-Dec-24 06:06  m  20 03 44.868378 +38 11 22.45995
 2018-Dec-24 06:07  m  20 03 44.822449 +38 11 22.70251
 2018-Dec-24 06:08  m  20 03 44.776524 +38 11 22.94540
 2018-Dec-24 06:09  m  20 03 44.730605 +38 11 23.18863
 2018-Dec-24 06:10  m  20 03 44.684690 +38 11 23.43218
 2018-Dec-24 06:11  m  20 03 44.638779 +38 11 23.67606
 2018-Dec-24 06:12  m  20 03 44.592873 +38 11 23.92028
 2018-Dec-24 06:13  m  20 03 44.546971 +38 11 24.16483
 2018-Dec-24 06:14  m  20 03 44.501072 +38 11 24.40971
 2018-Dec-24 06:15  m  20 03 44.455177 +38 11 24.65492
 2018-Dec-24 06:16  m  20 03 44.409286 +38 11 24.90046
 2018-Dec-24 06:17  m  20 03 44.363397 +38 11 25.14633
 2018-Dec-24 06:18  m  20 03 44.317512 +38 11 25.39253
 2018-Dec-24 06:19  m  20 03 44.271629 +38 11 25.63907
 2018-Dec-24 06:20  m  20 03 44.225749 +38 11 25.88594
 2018-Dec-24 06:21  m  20 03 44.179871 +38 11 26.13314
 2018-Dec-24 06:22  m  20 03 44.133995 +38 11 26.38067
 2018-Dec-24 06:23  m  20 03 44.088120 +38 11 26.62854
 2018-Dec-24 06:24  m  20 03 44.042248 +38 11 26.87674
 2018-Dec-24 06:25  m  20 03 43.996377 +38 11 27.12527
 2018-Dec-24 06:26  m  20 03 43.950507 +38 11 27.37414
 2018-Dec-24 06:27  m  20 03 43.904638 +38 11 27.62333
 2018-Dec-24 06:28  m  20 03 43.858770 +38 11 27.87286
 2018-Dec-24 06:29  m  20 03 43.812902 +38 11 28.12273
 2018-Dec-24 06:30  m  20 03 43.767035 +38 11 28.37292
 2018-Dec-24 06:31  m  20 03 43.721168 +38 11 28.62345
 2018-Dec-24 06:32  m  20 03 43.675301 +38 11 28.87431
 2018-Dec-24 06:33  m  20 03 43.629433 +38 11 29.12551
 2018-Dec-24 06:34  m  20 03 43.583565 +38 11 29.37704
 2018-Dec-24 06:35  m  20 03 43.537697 +38 11 29.62890
 2018-Dec-24 06:36  m  20 03 43.491827 +38 11 29.88110
 2018-Dec-24 06:37  m  20 03 43.445956 +38 11 30.13363
 2018-Dec-24 06:38  m  20 03 43.400084 +38 11 30.38649
 2018-Dec-24 06:39  m  20 03 43.354210 +38 11 30.63968
 2018-Dec-24 06:40  m  20 03 43.308335 +38 11 30.89321
 2018-Dec-24 06:41  m  20 03 43.262457 +38 11 31.14707
 2018-Dec-24 06:42  m  20 03 43.216577 +38 11 31.40127
 2018-Dec-24 06:43  m  20 03 43.170695 +38 11 31.65580
 2018-Dec-24 06:44  m  20 03 43.124810 +38 11 31.91066
 2018-Dec-24 06:45  m  20 03 43.078922 +38 11 32.16585
 2018-Dec-24 06:46  m  20 03 43.033031 +38 11 32.42138
 2018-Dec-24 06:47  m  20 03 42.987137 +38 11 32.67724
 2018-Dec-24 06:48  m  20 03 42.941239 +38 11 32.93344
 2018-Dec-24 06:49  m  20 03 42.895338 +38 11 33.18997
 2018-Dec-24 06:50  m  20 03 42.849432 +38 11 33.44683
 2018-Dec-24 06:51  m  20 03 42.803523 +38 11 33.70402
 2018-Dec-24 06:52  m  20 03 42.757609 +38 11 33.96154
 2018-Dec-24 06:53  m  20 03 42.711690 +38 11 34.21940
 2018-Dec-24 06:54  m  20 03 42.665767 +38 11 34.47759
 2018-Dec-24 06:55  m  20 03 42.619839 +38 11 34.73612
 2018-Dec-24 06:56  m  20 03 42.573905 +38 11 34.99497
 2018-Dec-24 06:57  m  20 03 42.527966 +38 11 35.25416
 2018-Dec-24 06:58  m  20 03 42.482021 +38 11 35.51368
 2018-Dec-24 06:59  m  20 03 42.436070 +38 11 35.77353
 2018-Dec-24 07:00  m  20 03 42.390114 +38 11 36.03371
 2018-Dec-24 07:01  m  20 03 42.344151 +38 11 36.29423
 2018-Dec-24 07:02  m  20 03 42.298181 +38 11 36.55507
 2018-Dec-24 07:03  m  20 03 42.252205 +38 11 36.81625
 2018-Dec-24 07:04  m  20 03 42.206222 +38 11 37.07776
 2018-Dec-24 07:05  m  20 03 42.160231 +38 11 37.33960
 2018-Dec-24 07:06  m  20 03 42.114233 +38 11 37.60177
 2018-Dec-24 07:07  m  20 03 42.068228 +38 11 37.86427
 2018-Dec-24 07:08  m  20 03 42.022215 +38 11 38.12710
 2018-Dec-24 07:09  m  20 03 41.976194 +38 11 38.39026
 2018-Dec-24 07:10  m  20 03 41.930164 +38 11 38.65375
 2018-Dec-24 07:11  m  20 03 41.884126 +38 11 38.91757
 2018-Dec-24 07:12  m  20 03 41.838080 +38 11 39.18172
 2018-Dec-24 07:13  m  20 03 41.792024 +38 11 39.44620
 2018-Dec-24 07:14  m  20 03 41.745960 +38 11 39.71101
 2018-Dec-24 07:15  m  20 03 41.699886 +38 11 39.97614
 2018-Dec-24 07:16  m  20 03 41.653803 +38 11 40.24161
 2018-Dec-24 07:17  m  20 03 41.607710 +38 11 40.50740
 2018-Dec-24 07:18  m  20 03 41.561607 +38 11 40.77352
 2018-Dec-24 07:19  m  20 03 41.515494 +38 11 41.03997
 2018-Dec-24 07:20  m  20 03 41.469371 +38 11 41.30675
 2018-Dec-24 07:21  m  20 03 41.423237 +38 11 41.57385
 2018-Dec-24 07:22  m  20 03 41.377092 +38 11 41.84128
 2018-Dec-24 07:23  m  20 03 41.330936 +38 11 42.10904
 2018-Dec-24 07:24  m  20 03 41.284770 +38 11 42.37712
 2018-Dec-24 07:25  m  20 03 41.238591 +38 11 42.64553
 2018-Dec-24 07:26  m  20 03 41.192401 +38 11 42.91427
 2018-Dec-24 07:27  m  20 03 41.146200 +38 11 43.18333
 2018-Dec-24 07:28  m  20 03 41.099986 +38 11 43.45271
 2018-Dec-24 07:29  m  20 03 41.053760 +38 11 43.72242
 2018-Dec-24 07:30  m  20 03 41.007521 +38 11 43.99246
 2018-Dec-24 07:31  m  20 03 40.961270 +38 11 44.26282
 2018-Dec-24 07:32  m  20 03 40.915006 +38 11 44.53350
 2018-Dec-24 07:33  m  20 03 40.868729 +38 11 44.80450
 2018-Dec-24 07:34  m  20 03 40.822439 +38 11 45.07583
 2018-Dec-24 07:35  m  20 03 40.776135 +38 11 45.34748
 2018-Dec-24 07:36  m  20 03 40.729817 +38 11 45.61945
 2018-Dec-24 07:37  m  20 03 40.683486 +38 11 45.89174
 2018-Dec-24 07:38  m  20 03 40.637140 +38 11 46.16436
 2018-Dec-24 07:39  m  20 03 40.590780 +38 11 46.43729
 2018-Dec-24 07:40  m  20 03 40.544406 +38 11 46.71055
 2018-Dec-24 07:41  m  20 03 40.498017 +38 11 46.98412
 2018-Dec-24 07:42  m  20 03 40.451613 +38 11 47.25802
 2018-Dec-24 07:43  m  20 03 40.405193 +38 11 47.53223
 2018-Dec-24 07:44  m  20 03 40.358759 +38 11 47.80677
 2018-Dec-24 07:45  m  20 03 40.312308 +38 11 48.08162
 2018-Dec-24 07:46  m  20 03 40.265842 +38 11 48.35679
 2018-Dec-24 07:47  m  20 03 40.219360 +38 11 48.63227
 2018-Dec-24 07:48  m  20 03 40.172862 +38 11 48.90808
 2018-Dec-24 07:49  m  20 03 40.126348 +38 11 49.18419
 2018-Dec-24 07:50  m  20 03 40.079817 +38 11 49.46063
 2018-Dec-24 07:51  m  20 03 40.033269 +38 11 49.73738
 2018-Dec-24 07:52  m  20 03 39.986704 +38 11 50.01445
 2018-Dec-24 07:53  m  20 03 39.940121 +38 11 50.29183
 2018-Dec-24 07:54  m  20 03 39.893522 +38 11 50.56952
 2018-Dec-24 07:55  m  20 03 39.846905 +38 11 50.84753
 2018-Dec-24 07:56  m  20 03 39.800270 +38 11 51.12585
 2018-Dec-24 07:57  m  20 03 39.753617 +38 11 51.40448
 2018-Dec-24 07:58  m  20 03 39.706945 +38 11 51.68343
 2018-Dec-24 07:59  m  20 03 39.660256 +38 11 51.96268
 2018-Dec-24 08:00  m  20 03 39.613547 +38 11 52.24225
 2018-Dec-24 08:01  m  20 03 39.566820 +38 11 52.52212
 2018-Dec-24 08:02  m  20 03 39.520074 +38 11 52.80231
 2018-Dec-24 08:03 Am  20 03 39.473309 +38 11 53.08281
 2018-Dec-24 08:04 Am  20 03 39.426524 +38 11 53.36361
 2018-Dec-24 08:05 Am  20 03 39.379720 +38 11 53.64472
